NORAD_CAT_ID,OBJECT_NAME,OBJECT_TYPE,EPOCH,MEAN_MOTION,ECCENTRICITY,INCLINATION,RA_OF_ASC_NODE,ARG_OF_PERICENTER,MEAN_ANOMALY,BSTAR,MEAN_MOTION_DOT,MEAN_MOTION_DDOT,TLE_LINE0,TLE_LINE1,TLE_LINE2,SEMIMAJOR_AXIS,PERIOD,APOGEE,PERIGEE,DECAYED
53986.0,STARLINK-5119,PAYLOAD,2023-02-17 07:41:37,15.08828731,9.57e-05,53.2161,175.3691,97.8061,262.3039,-0.00016489,-2.91e-05,0.0,0 STARLINK-5119,1 53986U 22125Y   23048.32057105 -.00002910  00000-0 -16489-3 0  9998,2 53986  53.2161 175.3691 0000957  97.8061 262.3039 15.08828731 21141,6917.915,95.438,540.442,539.118,0.0
53986.0,STARLINK-5119,PAYLOAD,2023-02-17 17:13:56,15.0883561,0.0001376,53.216,173.5861,81.2837,278.8311,0.0005038,7.738e-05,0.0,0 STARLINK-5119,1 53986U 22125Y   23048.71801459  .00007738  00000-0  50380-3 0  9999,2 53986  53.2160 173.5861 0001376  81.2837 278.8311 15.08835610 21120,6917.894,95.438,540.711,538.807,0.0
53986.0,STARLINK-5119,PAYLOAD,2023-02-18 09:07:48,15.08828028,0.0001979,53.2163,170.6126,99.3322,260.7894,0.00035312,5.334e-05,0.0,0 STARLINK-5119,1 53986U 22125Y   23049.38042332  .00005334  00000-0  35312-3 0  9998,2 53986  53.2163 170.6126 0001979  99.3322 260.7894 15.08828028 21304,6917.917,95.438,541.151,538.413,0.0
53986.0,STARLINK-5119,PAYLOAD,2023-02-19 13:44:45,15.08847164,0.0001331,53.2177,165.2628,69.8491,290.2644,0.00068977,0.00010709,0.0,0 STARLINK-5119,1 53986U 22125Y   23050.57274698  .00010709  00000-0  68977-3 0  9998,2 53986  53.2177 165.2628 0001331  69.8491 290.2644 15.08847164 21401,6917.858,95.437,540.644,538.803,0.0
53986.0,STARLINK-5119,PAYLOAD,2023-02-19 16:55:31,15.08855483,0.0001357,53.2177,164.6679,68.6183,291.4954,0.00092668,0.00014497,0.0,0 STARLINK-5119,1 53986U 22125Y   23050.70522539  .00014497  00000-0  92668-3 0  9995,2 53986  53.2177 164.6679 0001357  68.6183 291.4954 15.08855483 21504,6917.833,95.437,540.637,538.759,0.0
53986.0,STARLINK-5119,PAYLOAD,2023-02-20 00:52:27,15.08845714,0.0001095,53.2182,163.1786,83.2329,276.8788,0.00036592,5.541e-05,0.0,0 STARLINK-5119,1 53986U 22125Y   23051.03642515  .00005541  00000-0  36592-3 0  9993,2 53986  53.2182 163.1786 0001095  83.2329 276.8788 15.08845714 21550,6917.863,95.437,540.485,538.97,0.0
53986.0,STARLINK-5119,PAYLOAD,2023-02-20 13:35:32,15.08851324,0.0001349,53.2178,160.802,77.9645,282.1498,0.00045804,7.012e-05,0.0,0 STARLINK-5119,1 53986U 22125Y   23051.56634461  .00007012  00000-0  45804-3 0  9993,2 53986  53.2178 160.8020 0001349  77.9645 282.1498 15.08851324 21555,6917.846,95.437,540.644,538.778,0.0
53986.0,STARLINK-5119,PAYLOAD,2023-02-21 10:15:32,15.08850746,0.0001296,53.2178,156.9372,73.9796,286.1339,0.00045732,7e-05,0.0,0 STARLINK-5119,1 53986U 22125Y   23052.42746294  .00007000  00000-0  45732-3 0  9994,2 53986  53.2178 156.9372 0001296  73.9796 286.1339 15.08850746 21763,6917.848,95.437,540.609,538.816,0.0
53986.0,STARLINK-5119,PAYLOAD,2023-02-21 13:26:18,15.08857121,0.0001447,53.2199,156.3412,84.7644,275.3513,0.00051557,7.931e-05,0.0,0 STARLINK-5119,1 53986U 22125Y   23052.55994001  .00007931  00000-0  51557-3 0  9994,2 53986  53.2199 156.3412 0001447  84.7644 275.3513 15.08857121 21707,6917.828,95.436,540.694,538.692,0.0
53986.0,STARLINK-5119,PAYLOAD,2023-02-21 16:37:04,15.08863066,0.0001399,53.2194,155.745,88.1944,271.9209,0.00065628,0.00010179,0.0,0 STARLINK-5119,1 53986U 22125Y   23052.69241754  .00010179  00000-0  65628-3 0  9991,2 53986  53.2194 155.7450 0001399  88.1944 271.9209 15.08863066 21725,6917.81,95.436,540.643,538.707,0.0
53986.0,STARLINK-5119,PAYLOAD,2023-02-22 11:41:42,15.08845066,0.0001173,53.2175,152.1794,91.2825,268.8301,8.01e-05,9.87e-06,0.0,0 STARLINK-5119,1 53986U 22125Y   23053.48729938  .00000987  00000-0  80100-4 0  9993,2 53986  53.2175 152.1794 0001173  91.2825 268.8301 15.08845066 21929,6917.865,95.437,540.541,538.918,0.0
53986.0,STARLINK-5119,PAYLOAD,2023-02-22 13:17:05,15.08846758,0.0001307,53.2181,151.8819,97.1,263.0141,0.00010204,1.337e-05,0.0,0 STARLINK-5119,1 53986U 22125Y   23053.55353828  .00001337  00000-0  10204-3 0  9999,2 53986  53.2181 151.8819 0001307  97.1000 263.0141 15.08846758 21859,6917.86,95.437,540.629,538.821,0.0
53986.0,STARLINK-5119,PAYLOAD,2023-02-22 14:52:28,15.08847697,0.000136,53.2184,151.5844,101.7418,258.3727,0.00011488,1.541e-05,0.0,0 STARLINK-5119,1 53986U 22125Y   23053.61977748  .00001541  00000-0  11488-3 0  9991,2 53986  53.2184 151.5844 0001360 101.7418 258.3727 15.08847697 21862,6917.857,95.437,540.663,538.781,0.0
53986.0,STARLINK-5119,PAYLOAD,2023-02-23 09:57:06,15.08837572,0.0001668,53.2192,148.0155,120.369,239.7467,-8.9546e-05,-1.713e-05,0.0,0 STARLINK-5119,1 53986U 22125Y   23054.41466219 -.00001713  00000-0 -89546-4 0  9990,2 53986  53.2192 148.0155 0001668 120.3690 239.7467 15.08837572 22065,6917.888,95.438,540.907,538.599,0.0
53986.0,STARLINK-5119,PAYLOAD,2023-02-23 11:32:29,15.08840724,0.0001487,53.2188,147.7177,116.7664,243.3481,-7.7706e-05,-1.524e-05,0.0,0 STARLINK-5119,1 53986U 22125Y   23054.48090053 -.00001524  00000-0 -77706-4 0  9991,2 53986  53.2188 147.7177 0001487 116.7664 243.3481 15.08840724 21990,6917.878,95.438,540.772,538.714,0.0
53986.0,STARLINK-5119,PAYLOAD,2023-02-23 13:07:52,15.08839806,0.0001299,53.2184,147.4207,112.7881,247.3248,-2.4121e-05,-6.72e-06,0.0,0 STARLINK-5119,1 53986U 22125Y   23054.54714050 -.00000672  00000-0 -24121-4 0  9994,2 53986  53.2184 147.4207 0001299 112.7881 247.3248 15.08839806 22002,6917.881,95.438,540.645,538.847,0.0
53986.0,STARLINK-5119,PAYLOAD,2023-02-24 11:23:16,15.08844996,0.0001228,53.2191,143.2597,112.1567,247.9556,0.00023016,3.378e-05,0.0,0 STARLINK-5119,1 53986U 22125Y   23055.47450174  .00003378  00000-0  23016-3 0  9996,2 53986  53.2191 143.2597 0001228 112.1567 247.9556 15.08844996 22142,6917.865,95.437,540.58,538.881,0.0
53986.0,STARLINK-5119,PAYLOAD,2023-02-24 14:34:03,15.08846943,0.0001128,53.2189,142.6652,109.8801,250.2313,0.00030462,4.564e-05,0.0,0 STARLINK-5119,1 53986U 22125Y   23055.60698084  .00004564  00000-0  30462-3 0  9996,2 53986  53.2189 142.6652 0001128 109.8801 250.2313 15.08846943 22240,6917.859,95.437,540.505,538.944,0.0
53986.0,STARLINK-5119,PAYLOAD,2023-02-24 22:30:59,15.08835823,9.76e-05,53.219,141.1767,112.4125,247.697,4.0281e-05,3.53e-06,0.0,0 STARLINK-5119,1 53986U 22125Y   23055.93818433  .00000353  00000-0  40281-4 0  9997,2 53986  53.2190 141.1767 0000976 112.4125 247.6970 15.08835823 22291,6917.893,95.438,540.433,539.083,0.0
53986.0,STARLINK-5119,PAYLOAD,2023-02-25 11:14:04,15.08827508,0.0001183,53.2188,138.7993,104.5357,255.5766,-9.3834e-05,-1.78e-05,0.0,0 STARLINK-5119,1 53986U 22125Y   23056.46811245 -.00001780  00000-0 -93834-4 0  9999,2 53986  53.2188 138.7993 0001183 104.5357 255.5766 15.08827508 22372,6917.919,95.438,540.602,538.965,0.0
53986.0,STARLINK-5119,PAYLOAD,2023-02-25 14:24:51,15.08827257,0.0001047,53.2179,138.205,99.8527,260.2584,-4.8119e-05,-1.053e-05,0.0,0 STARLINK-5119,1 53986U 22125Y   23056.60059359 -.00001053  00000-0 -48119-4 0  9994,2 53986  53.2179 138.2050 0001047  99.8527 260.2584 15.08827257 22311,6917.919,95.438,540.509,539.06,0.0
53986.0,STARLINK-5119,PAYLOAD,2023-02-25 22:21:46,15.08839309,0.0001015,53.2185,136.7176,101.6345,258.4761,0.00015527,2.184e-05,0.0,0 STARLINK-5119,1 53986U 22125Y   23056.93179034  .00002184  00000-0  15527-3 0  9993,2 53986  53.2185 136.7176 0001015 101.6345 258.4761 15.08839309 22367,6917.883,95.438,540.45,539.045,0.0
53986.0,STARLINK-5119,PAYLOAD,2023-02-26 09:29:28,15.08864835,8.46e-05,53.2177,134.6359,105.5447,254.5639,0.0011867,0.00018662,0.0,0 STARLINK-5119,1 53986U 22125Y   23057.39546606  .00018662  00000-0  11867-2 0  9997,2 53986  53.2177 134.6359 0000846 105.5447 254.5639 15.08864835 22515,6917.804,95.436,540.255,539.084,0.0
53986.0,STARLINK-5119,PAYLOAD,2023-02-26 14:15:37,15.0888328,9.35e-05,53.2165,133.7433,95.8451,264.2648,0.0018891,0.00029941,0.0,0 STARLINK-5119,1 53986U 22125Y   23057.59418161  .00029941  00000-0  18891-2 0  9999,2 53986  53.2165 133.7433 0000935  95.8451 264.2648 15.08883280 22467,6917.748,95.435,540.26,538.966,0.0
53986.0,STARLINK-5119,PAYLOAD,2023-02-26 22:12:33,15.08843869,0.0002111,53.2175,132.2566,76.258,283.8647,0.00065518,0.00010156,0.0,0 STARLINK-5119,1 53986U 22125Y   23057.92539165  .00010156  00000-0  65518-3 0  9991,2 53986  53.2175 132.2566 0002111  76.2580 283.8647 15.08843869 22592,6917.869,95.437,541.194,538.273,0.0
53986.0,STARLINK-5119,PAYLOAD,2023-02-27 04:34:06,15.08853576,0.0002428,53.2173,131.0677,76.3267,283.7995,0.0018116,0.00028673,0.0,0 STARLINK-5119,1 53986U 22125Y   23058.19035241  .00028673  00000-0  18116-2 0  9991,2 53986  53.2173 131.0677 0002428  76.3267 283.7995 15.08853576 22551,6917.839,95.437,541.384,538.024,0.0
53986.0,STARLINK-5119,PAYLOAD,2023-02-27 14:06:25,15.0888608,0.0001263,53.2164,129.2829,67.5273,292.5853,0.0052381,0.00084179,0.0,0 STARLINK-5119,1 53986U 22125Y   23058.58779050  .00084179  00000-0  52381-2 0  9992,2 53986  53.2164 129.2829 0001263  67.5273 292.5853 15.08886080 22696,6917.74,95.435,540.478,538.731,0.0
53986.0,STARLINK-5119,PAYLOAD,2023-02-28 10:46:25,15.08845,0.0001317,53.2174,125.4174,80.7564,279.3577,0.00026167,3.88e-05,0.0,0 STARLINK-5119,1 53986U 22125Y   23059.44890874  .00003880  00000-0  26167-3 0  9990,2 53986  53.2174 125.4174 0001317  80.7564 279.3577 15.08845000 22826,6917.865,95.437,540.641,538.819,0.0
53986.0,STARLINK-5119,PAYLOAD,2023-03-01 04:15:41,15.08821337,0.0001887,53.218,122.1475,109.8026,250.317,0.0013707,0.00021583,0.0,0 STARLINK-5119,1 53986U 22125Y   23060.17756617  .00021583  00000-0  13707-2 0  9993,2 53986  53.2180 122.1475 0001887 109.8026 250.3170 15.08821337 22936,6917.937,95.439,541.108,538.497,0.0
53986.0,STARLINK-5119,PAYLOAD,2023-03-01 10:37:14,15.08816769,0.00015,53.2178,120.9561,113.9561,246.1588,0.0005623,8.667e-05,0.0,0 STARLINK-5119,1 53986U 22125Y   23060.44252975  .00008667  00000-0  56230-3 0  9998,2 53986  53.2178 120.9561 0001500 113.9561 246.1588 15.08816769 22970,6917.951,95.439,540.854,538.779,0.0
